{
  "type": "FeatureCollection",
  "features": [
    {
      "type": "Feature",
      "properties": {
        "norad_id": 38479,
        "name": "COSMOS 2251 DEB",
        "group": "cosmos-2251-debris",
        "lat": -33.026418099241795,
        "lon": 21.964837767198592,
        "alt_km": 766.0590573046647,
        "timestamp": "2025-12-08T23:34:04.369954+00:00",
        "meta_object_name": "COSMOS 2251 DEB",
        "meta_object_id": "1993-036BTP",
        "meta_epoch": "2025-12-07T08:59:39.442848",
        "meta_mean_motion": 14.38206673,
        "meta_eccentricity": 0.00841346,
        "meta_inclination": 74.0062,
        "meta_ra_of_asc_node": 194.1851,
        "meta_arg_of_pericenter": 304.3945,
        "meta_mean_anomaly": 232.7575,
        "meta_ephemeris_type": 0,
        "meta_classification_type": "U",
        "meta_norad_cat_id": 38479,
        "meta_element_set_no": 999,
        "meta_rev_at_epoch": 64610,
        "meta_bstar": 0.0026377804,
        "meta_mean_motion_dot": 8.33e-05,
        "meta_mean_motion_ddot": 0,
        "tle_line1": "1 38479U 93036BTP 25341.37476207  .00008330  00000+0  26378-2 0  9994",
        "tle_line2": "2 38479  74.0062 194.1851 0084134 304.3945 232.7575 14.38206673646107"
      },
      "geometry": {
        "type": "Point",
        "coordinates": [
          21.964837767198592,
          -33.026418099241795
        ]
      }
    },
    {
      "type": "Feature",
      "properties": {
        "norad_id": 38481,
        "name": "COSMOS 2251 DEB",
        "group": "cosmos-2251-debris",
        "lat": -11.515233125493472,
        "lon": 10.687192011719038,
        "alt_km": 771.5826612807969,
        "timestamp": "2025-12-08T23:34:04.369964+00:00",
        "meta_object_name": "COSMOS 2251 DEB",
        "meta_object_id": "1993-036BTR",
        "meta_epoch": "2025-12-07T20:04:54.972768",
        "meta_mean_motion": 13.94787579,
        "meta_eccentricity": 0.0233704,
        "meta_inclination": 73.9329,
        "meta_ra_of_asc_node": 16.0313,
        "meta_arg_of_pericenter": 317.436,
        "meta_mean_anomaly": 40.8857,
        "meta_ephemeris_type": 0,
        "meta_classification_type": "U",
        "meta_norad_cat_id": 38481,
        "meta_element_set_no": 999,
        "meta_rev_at_epoch": 58992,
        "meta_bstar": 0.0025212109,
        "meta_mean_motion_dot": 4.22e-05,
        "meta_mean_motion_ddot": 0,
        "tle_line1": "1 38481U 93036BTR 25341.83674737  .00004220  00000+0  25212-2 0  9996",
        "tle_line2": "2 38481  73.9329  16.0313 0233704 317.4360  40.8857 13.94787579589921"
      },
      "geometry": {
        "type": "Point",
        "coordinates": [
          10.687192011719038,
          -11.515233125493472
        ]
      }
    },
    {
      "type": "Feature",
      "properties": {
        "norad_id": 38483,
        "name": "COSMOS 2251 DEB",
        "group": "cosmos-2251-debris",
        "lat": -10.246255653521846,
        "lon": 15.552632360761988,
        "alt_km": 856.4031293084854,
        "timestamp": "2025-12-08T23:34:04.369974+00:00",
        "meta_object_name": "COSMOS 2251 DEB",
        "meta_object_id": "1993-036BTT",
        "meta_epoch": "2025-12-05T09:54:51.547104",
        "meta_mean_motion": 14.28743518,
        "meta_eccentricity": 0.01115299,
        "meta_inclination": 74.2614,
        "meta_ra_of_asc_node": 24.8593,
        "meta_arg_of_pericenter": 132.5252,
        "meta_mean_anomaly": 228.5384,
        "meta_ephemeris_type": 0,
        "meta_classification_type": "U",
        "meta_norad_cat_id": 38483,
        "meta_element_set_no": 999,
        "meta_rev_at_epoch": 63373,
        "meta_bstar": 0.0016991918,
        "meta_mean_motion_dot": 4.552e-05,
        "meta_mean_motion_ddot": 0,
        "tle_line1": "1 38483U 93036BTT 25339.41309661  .00004552  00000+0  16992-2 0  9993",
        "tle_line2": "2 38483  74.2614  24.8593 0111529 132.5252 228.5384 14.28743518633739"
      },
      "geometry": {
        "type": "Point",
        "coordinates": [
          15.552632360761988,
          -10.246255653521846
        ]
      }
    },
    {
      "type": "Feature",
      "properties": {
        "norad_id": 38486,
        "name": "COSMOS 2251 DEB",
        "group": "cosmos-2251-debris",
        "lat": 73.86179698721614,
        "lon": -52.37855477197229,
        "alt_km": 645.5106354151931,
        "timestamp": "2025-12-08T23:34:04.369985+00:00",
        "meta_object_name": "COSMOS 2251 DEB",
        "meta_object_id": "1993-036BTW",
        "meta_epoch": "2025-12-06T22:20:18.224736",
        "meta_mean_motion": 14.72994034,
        "meta_eccentricity": 0.00300466,
        "meta_inclination": 73.9399,
        "meta_ra_of_asc_node": 216.2395,
        "meta_arg_of_pericenter": 1.0805,
        "meta_mean_anomaly": 16.9545,
        "meta_ephemeris_type": 0,
        "meta_classification_type": "U",
        "meta_norad_cat_id": 38486,
        "meta_element_set_no": 999,
        "meta_rev_at_epoch": 75349,
        "meta_bstar": 0.0040836138,
        "meta_mean_motion_dot": 0.00026487,
        "meta_mean_motion_ddot": 0,
        "tle_line1": "1 38486U 93036BTW 25340.93076649  .00026487  00000+0  40836-2 0  9997",
        "tle_line2": "2 38486  73.9399 216.2395 0030046   1.0805  16.9545 14.72994034753497"
      },
      "geometry": {
        "type": "Point",
        "coordinates": [
          -52.37855477197229,
          73.86179698721614
        ]
      }
    },
    {
      "type": "Feature",
      "properties": {
        "norad_id": 38487,
        "name": "COSMOS 2251 DEB",
        "group": "cosmos-2251-debris",
        "lat": -5.331473668337816,
        "lon": 40.15793408952588,
        "alt_km": 530.4612197897168,
        "timestamp": "2025-12-08T23:34:04.369995+00:00",
        "meta_object_name": "COSMOS 2251 DEB",
        "meta_object_id": "1993-036BTX",
        "meta_epoch": "2025-12-08T10:55:44.562432",
        "meta_mean_motion": 15.16822599,
        "meta_eccentricity": 0.0022121,
        "meta_inclination": 73.9745,
        "meta_ra_of_asc_node": 42.7971,
        "meta_arg_of_pericenter": 215.1063,
        "meta_mean_anomaly": 144.8676,
        "meta_ephemeris_type": 0,
        "meta_classification_type": "U",
        "meta_norad_cat_id": 38487,
        "meta_element_set_no": 999,
        "meta_rev_at_epoch": 66735,
        "meta_bstar": 0.0022857058,
        "meta_mean_motion_dot": 0.00045475,
        "meta_mean_motion_ddot": 0,
        "tle_line1": "1 38487U 93036BTX 25342.45537688  .00045475  00000+0  22857-2 0  9993",
        "tle_line2": "2 38487  73.9745  42.7971 0022121 215.1063 144.8676 15.16822599667354"
      },
      "geometry": {
        "type": "Point",
        "coordinates": [
          40.15793408952588,
          -5.331473668337816
        ]
      }
    },
    {
      "type": "Feature",
      "properties": {
        "norad_id": 39109,
        "name": "COSMOS 2251 DEB",
        "group": "cosmos-2251-debris",
        "lat": -2.670896439445033,
        "lon": 53.13321248033676,
        "alt_km": 699.16316792207,
        "timestamp": "2025-12-08T23:34:04.370005+00:00",
        "meta_object_name": "COSMOS 2251 DEB",
        "meta_object_id": "1993-036BTY",
        "meta_epoch": "2025-12-07T09:44:29.277888",
        "meta_mean_motion": 14.70664574,
        "meta_eccentricity": 0.00591147,
        "meta_inclination": 74.043,
        "meta_ra_of_asc_node": 235.425,
        "meta_arg_of_pericenter": 339.9553,
        "meta_mean_anomaly": 141.919,
        "meta_ephemeris_type": 0,
        "meta_classification_type": "U",
        "meta_norad_cat_id": 39109,
        "meta_element_set_no": 999,
        "meta_rev_at_epoch": 65095,
        "meta_bstar": 0.0010290014,
        "meta_mean_motion_dot": 6.41e-05,
        "meta_mean_motion_ddot": 0,
        "tle_line1": "1 39109U 93036BTY 25341.40589442  .00006410  00000+0  10290-2 0  9998",
        "tle_line2": "2 39109  74.0430 235.4250 0059114 339.9553 141.9190 14.70664574650954"
      },
      "geometry": {
        "type": "Point",
        "coordinates": [
          53.13321248033676,
          -2.670896439445033
        ]
      }
    },
    {
      "type": "Feature",
      "properties": {
        "norad_id": 39110,
        "name": "COSMOS 2251 DEB",
        "group": "cosmos-2251-debris",
        "lat": -15.558618139922844,
        "lon": 64.25989077539435,
        "alt_km": 607.6837827847266,
        "timestamp": "2025-12-08T23:34:04.370015+00:00",
        "meta_object_name": "COSMOS 2251 DEB",
        "meta_object_id": "1993-036BTZ",
        "meta_epoch": "2025-12-03T13:14:13.055136",
        "meta_mean_motion": 14.72215365,
        "meta_eccentricity": 0.00964609,
        "meta_inclination": 73.9598,
        "meta_ra_of_asc_node": 79.4668,
        "meta_arg_of_pericenter": 313.6965,
        "meta_mean_anomaly": 59.6182,
        "meta_ephemeris_type": 0,
        "meta_classification_type": "U",
        "meta_norad_cat_id": 39110,
        "meta_element_set_no": 999,
        "meta_rev_at_epoch": 62349,
        "meta_bstar": 0.00066560445,
        "meta_mean_motion_dot": 4.484e-05,
        "meta_mean_motion_ddot": 0,
        "tle_line1": "1 39110U 93036BTZ 25337.55153999  .00004484  00000+0  66560-3 0  9996",
        "tle_line2": "2 39110  73.9598  79.4668 0096460 313.6965  59.6182 14.72215365623496"
      },
      "geometry": {
        "type": "Point",
        "coordinates": [
          64.25989077539435,
          -15.558618139922844
        ]
      }
    }
  ]
}